#dP2023 11  7  0  0  0.00000000      96 __u+U IGS20 FIT  IAC
## 2287 172800.00000000   900.00000000 60255 0.0000000000000
+  118   C06C07C08C09C10C11C12C13C14C16C19C20C21C22C23C24C25
+        C26C27C28C29C30C32C33C34C35C36C37C38C39C40C41C42C43
+        C44C45C46E02E03E04E05E07E08E09E10E11E12E13E15E19E21
+        E24E25E26E27E30E31E33E34E36G01G02G03G04G05G06G07G08
+        G09G10G11G12G13G14G15G16G17G18G19G20G21G22G23G24G25
+        G26G27G28G29G30G31G32J02J03J04R01R02R03R04R05R07R08
+        R09R11R12R13R14R15R16R17R18R19R20R21R22R24R25R26  0
++         7  7  7  7  7  7  7  7  6  7  6  6  6  6  6  5  5
++         6  5  6  6  5  5  6  6  6  6  6  6  6  6  5  6  6
++         6  6  6  4  4  4  0  4  5  4  4  4  4  4  4  4  4
++         4  4  4  4  4  4  4  4  4  4  3  4  3  3  4  3  3
++         3  3  3  3  3  3  3  4  3  3  3  3  3  3  3  3  4
++         4  3  4  3  3  4  4  9  9  9  7  6  7  7  7  7  6
++         7  6  6  7  6  7  7  6  7  8  8  7  7  6  8  8  0
%c M  cc GPS ccc cccc cccc cccc cccc ccccc ccccc ccccc ccccc
%c cc cc ccc ccc cccc cccc cccc cccc ccccc ccccc ccccc ccccc
%f  1.2500000  1.025000000  0.00000000000  0.000000000000000
%f  0.0000000  0.000000000  0.00000000000  0.000000000000000
%i    0    0    0    0      0      0      0      0         0
%i    0    0    0    0      0      0      0      0         0
/* INFORMATION & ANALYSIS CENTER (IAC)            FINAL DATA
/* S/V CLOCKS ARE ALIGNED TO GNSS TIME                      
/* G:C1WC2W R:C1PC2P E:C1XC5X C:C2IC6I J:C1CC2S             
/* PCV:IGS20_2280 OL/AL:FES2004  NONE     YN ORB:CoN CLK:CoN
*  2023 11 07  3 15  0.00000000
PC06  -3498.086367  38617.304303  16920.819702     11.604114
PC07 -10864.870815  25758.102964 -31501.247946   -278.635835
PC08 -19589.408015  33193.455546  16831.691663    254.859050
PC09   1133.853486  41554.858630   9148.954255    -56.536227
PC10  -1252.096570  27308.697442 -31742.773479     -8.012419
PC11  -5764.319806 -25346.135765  10261.230718    243.076291
PC12   8822.930652 -14569.090485  22154.313552    868.396571
PC13 -13345.759610  33581.173708  21629.595370    378.956725
PC14  -1570.270076 -15685.236309 -23022.662790    734.381214
PC16  -6249.939740  36412.051152  20855.024772   -162.943464
PC19  12387.092167  14021.374965  20715.604879   -974.479430
PC20  -7717.510281  15050.016321  22202.950738    138.687620
PC21  24941.772853  -7007.422229 -10343.933646   -969.158519
PC22  26511.856834   4877.802149   7170.662939   -235.375889
PC23 -15636.343541  -5361.956167  22483.822273   -826.895750
PC24  12116.017706 -25003.017025   2766.160422    571.224973
PC25  -3608.810802 -20801.791655  18248.528346    249.973315
PC26  19244.236732 -15230.373612 -13335.779134   -202.605893
PC27 -14684.138673   6453.119908 -22850.637193    224.476505
PC28 -19542.288522 -11382.780587 -16343.792118    169.270724
PC29  13646.481664  24284.280631  -1651.746298    197.984964
PC30  -1407.442001  21467.289790 -17786.390199     -7.863371
PC32 -24961.566311   7148.700563  10241.076779   -533.327903
PC33 -12382.594748 -13991.529555 -20735.753890   -946.730368
PC34    229.443341 -22244.951542  16830.575156    297.864523
PC35  20007.802724  10516.543289  16379.493530    508.492919
PC36   2432.031435  21376.314479 -17746.115405   -145.503104
PC37 -19645.530474  14117.828258  13893.128867   -877.866680
PC38 -23743.367521  33676.272085   8534.459406    116.086658
PC39  -7244.585274  33707.795705  24480.074162     -5.558300
PC40 -15666.168141  19083.505133 -34197.978071    -43.014801
PC41 -26260.762746  -5217.053934  -7830.647736   -871.406492
PC42   9374.620573 -14801.617539 -21680.281223   -504.620706
PC43 -13042.885636 -24532.062958   2503.922886     47.198898
PC44  14672.505850  -6848.887727  22719.860433    285.078399
PC45  15834.177054   4694.230723 -22500.613380    -43.673193
PC46 -11375.978636  25153.370645  -3919.284684    -97.784565
PE02 -19482.628512  18919.074145 -11753.414387     76.333378
PE03  -8959.757268  14436.474237  24226.859257    -71.702002
PE04 -11328.911599 -21438.651457 -16976.653516   -251.723753
PE05 -23921.423611   -869.428035  17406.811796 999999.999999
PE07  24866.244813  16052.029628     74.214062    -86.454185
PE08  10881.899119  21309.168270  17413.535362   -173.131697
PE09 -24832.728989 -16118.167976   -223.624074   -218.690190
PE10  -8390.649089 -24234.811393 -14792.535898   -576.951184
PE11 -13317.450910 -15056.697006 -21731.177046   3180.183450
PE12  -2678.205232 -28783.769597  -6342.588432   -766.808163
PE13  13005.530182  15772.678285  21413.879498    -19.606232
PE15   2403.438285  28907.942794   5895.897276    -67.429978
PE19  11337.014774 -12662.282585 -24235.918246  -1267.054135
PE21  27436.537895  -9353.020259  -6010.133777   -562.874330
PE24 -19407.732669  -6685.854536  21305.513158   -417.763792
PE25 -27441.380228   9073.335636   6375.588676     -3.689614
PE26  15940.370140  -7158.450138  23902.968487    273.580541
PE27  19835.219074   6170.739328 -21087.942135   -193.611917
PE30    223.219651  18058.163173 -23456.430448   -641.694967
PE31   -620.533417 -17896.690950  23578.781058     -9.573609
PE33   9772.202346 -24544.227897  13373.139264      1.834901
PE34  -9417.811837  24933.614062 -12858.153231    -76.567733
PE36 -15840.506101   6379.349590 -24170.181163   -140.535778
PG01  13391.082654 -12124.400282  19001.394095    163.213441
PG02  14828.871654  -5733.056399  21756.330985   -532.272017
PG03  23468.625971 -12299.709822   -592.062364    -30.812579
PG04  16839.163081  -5101.193551 -19926.414216    205.913345
PG05 -23248.053596   3142.636724 -12725.203759   -149.423563
PG06  -6517.223734 -22602.202632 -12171.539117    512.434461
PG07   5587.565471 -24914.928383  -5862.913758     20.089100
PG08  22640.183013   2269.032981  13956.513293   -150.876935
PG09   6928.956413 -13736.506854 -21738.434193    -10.376623
PG10   1929.172231  15335.359076  21742.431211    -60.387121
PG11 -12464.169756 -12538.154150 -19816.149024   -449.176589
PG12 -24637.554316   9744.332583    900.126904   -444.261901
PG13 -22232.004635 -12532.925866   7544.287012    592.514383
PG14   2176.516085 -17084.720353  20198.218407    236.066305
PG15 -22391.053196   1041.207262  13925.294101     94.638721
PG16  21021.669634   3810.726561 -16380.574617   -426.435965
PG17  -7342.265425 -19639.660260  16663.606773    723.457713
PG18  -5027.294081  25558.968167  -4644.490212   -471.780390
PG19 -15156.498150 -20108.169012   8785.854066    395.450327
PG20 -16060.494090  -5985.040207 -20195.698183    402.916474
PG21  15386.880390  -1074.118660  22110.988857    144.917190
PG22  -4781.628041 -14637.753089  22097.959927     88.582409
PG23 -11290.427671  18172.893650  15629.888862     94.762386
PG24 -14792.981233   7262.813865  20358.602193   -365.200565
PG25 -17414.168742  17299.448744 -10112.788606    476.265470
PG26  13615.248337   9785.476208 -20793.685127    218.353865
PG27  23284.709337  12959.394796   2485.998825    -66.381252
PG28   6617.119769  23637.732276 -10172.463086    -40.697614
PG29  -8184.207331  12540.337565 -21977.085466   -610.234306
PG30  -1291.434030 -26120.714110   3855.548079   -470.895537
PG31  10970.677826  16919.274747 -17268.666930   -225.487984
PG32  12319.757715  19317.035083  13792.504810   -582.661456
PJ02 -35268.793554  19932.987988  -7090.625255     -0.106043
PJ03 -19842.104806  27423.753717 -20514.257400     -7.404759
PJ04 -28383.990062  28048.052794  19674.951209     72.037600
PR01    438.039099 -11033.688505 -22999.514911     69.274426
PR02 -17386.167484 -10627.800229 -15257.499577    -22.354145
PR03 -25126.064688  -4008.581644   1262.578784     88.542807
PR04 -18816.064182   4276.807148  16693.826701    210.029458
PR05  -2411.427510  10472.635679  23138.032662    121.835273
PR07  25187.834830   3697.801271  -2001.970655     68.554027
PR08  18726.978589  -4522.537982 -16688.488784    -73.196911
PR09   4862.035716  11533.002963 -22219.836631    151.836252
PR11  18065.914731 -16504.230465  -7167.332644   -211.381096
PR12   9663.073130 -20392.361151  11932.957211     33.162071
PR13  -2817.755844 -13018.863094  21739.957803    -41.021735
PR14 -15717.478165   3980.391399  19709.043013     25.519875
PR15 -18038.643485  17077.983731   5825.416073     84.899826
PR16  -9835.759200  20462.006475 -11653.246166     20.382409
PR17 -12753.303788  -8094.794118 -20554.260300     32.617284
PR18  -7567.508557   9298.497734 -22499.995689    110.698923
PR19   -147.803956  21196.539862 -14175.416933   -253.728358
PR20   9795.590348  22715.857053   6306.315138   -103.097836
PR21  12517.441401   7383.008547  20960.487411    -51.449925
PR22   7826.530500 -10121.186640  22096.947009     92.322007
PR24 -10959.950268 -22025.103028  -6762.689938    -31.170568
PR25  12649.475866   8463.659808  20472.058291     -6.393088
PR26  19069.283298  -4401.468889 -16334.875221    -17.762669
EOF
